STARLINK-35504          
1 66325U 25253G   25335.27687450  .00157191  00000+0  26242-2 0  9997
2 66325  42.9997  51.7479 0001584 258.7980 101.2703 15.50659884  5150
STARLINK-35479          
1 66326U 25253H   25336.24206491  .00118070  00000+0  19752-2 0  9999
2 66326  42.9998  46.0879 0002980 243.8104 116.2450 15.50760727  5308
STARLINK-35507          
1 66327U 25253J   25336.24412463  .00129109  00000+0  21550-2 0  9992
2 66327  42.9999  46.1060 0002596 253.7936 106.2639 15.50777938  5309
STARLINK-35460          
1 66328U 25253K   25335.59689311  .00099230  00000+0  16743-2 0  9997
2 66328  43.0003  49.8457 0001826 291.6400  68.4265 15.50606087  5209
STARLINK-35505          
1 66329U 25253L   25336.24447101  .00149376  00000+0  25402-2 0  9999
2 66329  43.0001  46.1098 0002149 329.5243  30.5492 15.50171072  5308
STARLINK-35512          
1 66330U 25253M   25336.25003472  .00072614  00000+0  17321-2 0  9992
2 66330  43.0006  46.1715 0001914 287.6140  64.5870 15.40646388  5246
STARLINK-35257          
1 66331U 25253N   25336.24001135  .00085511  00000+0  14445-2 0  9990
2 66331  42.9998  46.0726 0001228 269.4284  90.6435 15.50637590  5301
STARLINK-35322          
1 66332U 25253P   25336.24171575  .00090339  00000+0  15230-2 0  9994
2 66332  43.0002  46.0856 0000986 282.8379  77.2371 15.50671276  5307
STARLINK-35400          
1 66333U 25253Q   25336.24035489  .00089367  00000+0  15089-2 0  9999
2 66333  43.0007  46.0732 0001606 261.2181  98.8498 15.50632789  5303
STARLINK-35407          
1 66334U 25253R   25336.24160539  .00156096  00000+0  26112-2 0  9998
2 66334  43.0002  46.0853 0001820 277.7851  82.2803 15.50606846  5309
STARLINK-35417          
1 66335U 25253S   25336.25003472  .00047277  00000+0  11339-2 0  9997
2 66335  43.0009  46.2588 0001321 251.0876  63.9197 15.40649977  5248
STARLINK-35404          
1 66336U 25253T   25336.23966713  .00130295  00000+0  21834-2 0  9996
2 66336  42.9999  46.0686 0001574 253.9948 106.0739 15.50663874  5304
