CCSDS_OMM_VERS = 2.0
CREATION_DATE  = 
ORIGINATOR     = 

OBJECT_NAME    = STARLINK-35504
OBJECT_ID      = 2025-253G
CENTER_NAME    = EARTH
REF_FRAME      = TEME
TIME_SYSTEM    = UTC
MEAN_ELEMENT_THEORY = SGP/SGP4

EPOCH          = 2025-12-01T06:38:41.956800
MEAN_MOTION    = 15.50659884
ECCENTRICITY   = .0001584
INCLINATION    = 42.9997
RA_OF_ASC_NODE = 51.7479
ARG_OF_PERICENTER = 258.7980
MEAN_ANOMALY   = 101.2703

EPHEMERIS_TYPE = 0
CLASSIFICATION_TYPE = U
NORAD_CAT_ID   = 66325
ELEMENT_SET_NO = 999
REV_AT_EPOCH   = 515
BSTAR          = .26242E-2
MEAN_MOTION_DOT = .157191E-2
MEAN_MOTION_DDOT = 0

CCSDS_OMM_VERS = 2.0
CREATION_DATE  = 
ORIGINATOR     = 

OBJECT_NAME    = STARLINK-35479
OBJECT_ID      = 2025-253H
CENTER_NAME    = EARTH
REF_FRAME      = TEME
TIME_SYSTEM    = UTC
MEAN_ELEMENT_THEORY = SGP/SGP4

EPOCH          = 2025-12-02T05:48:34.408224
MEAN_MOTION    = 15.50760727
ECCENTRICITY   = .00029807
INCLINATION    = 42.9998
RA_OF_ASC_NODE = 46.0879
ARG_OF_PERICENTER = 243.8104
MEAN_ANOMALY   = 116.2450

EPHEMERIS_TYPE = 0
CLASSIFICATION_TYPE = U
NORAD_CAT_ID   = 66326
ELEMENT_SET_NO = 999
REV_AT_EPOCH   = 530
BSTAR          = .19751996E-2
MEAN_MOTION_DOT = .11807E-2
MEAN_MOTION_DDOT = 0

CCSDS_OMM_VERS = 2.0
CREATION_DATE  = 
ORIGINATOR     = 

OBJECT_NAME    = STARLINK-35507
OBJECT_ID      = 2025-253J
CENTER_NAME    = EARTH
REF_FRAME      = TEME
TIME_SYSTEM    = UTC
MEAN_ELEMENT_THEORY = SGP/SGP4

EPOCH          = 2025-12-02T05:51:32.368032
MEAN_MOTION    = 15.50777938
ECCENTRICITY   = .00025961
INCLINATION    = 42.9999
RA_OF_ASC_NODE = 46.1060
ARG_OF_PERICENTER = 253.7936
MEAN_ANOMALY   = 106.2639

EPHEMERIS_TYPE = 0
CLASSIFICATION_TYPE = U
NORAD_CAT_ID   = 66327
ELEMENT_SET_NO = 999
REV_AT_EPOCH   = 530
BSTAR          = .21550364E-2
MEAN_MOTION_DOT = .129109E-2
MEAN_MOTION_DDOT = 0

CCSDS_OMM_VERS = 2.0
CREATION_DATE  = 
ORIGINATOR     = 

OBJECT_NAME    = STARLINK-35460
OBJECT_ID      = 2025-253K
CENTER_NAME    = EARTH
REF_FRAME      = TEME
TIME_SYSTEM    = UTC
MEAN_ELEMENT_THEORY = SGP/SGP4

EPOCH          = 2025-12-01T14:19:31.564704
MEAN_MOTION    = 15.50606087
ECCENTRICITY   = .00018266
INCLINATION    = 43.0003
RA_OF_ASC_NODE = 49.8457
ARG_OF_PERICENTER = 291.6400
MEAN_ANOMALY   = 68.4265

EPHEMERIS_TYPE = 0
CLASSIFICATION_TYPE = U
NORAD_CAT_ID   = 66328
ELEMENT_SET_NO = 999
REV_AT_EPOCH   = 520
BSTAR          = .16742687E-2
MEAN_MOTION_DOT = .9923E-3
MEAN_MOTION_DDOT = 0

CCSDS_OMM_VERS = 2.0
CREATION_DATE  = 
ORIGINATOR     = 

OBJECT_NAME    = STARLINK-35505
OBJECT_ID      = 2025-253L
CENTER_NAME    = EARTH
REF_FRAME      = TEME
TIME_SYSTEM    = UTC
MEAN_ELEMENT_THEORY = SGP/SGP4

EPOCH          = 2025-12-02T05:52:02.295264
MEAN_MOTION    = 15.50171072
ECCENTRICITY   = .00021498
INCLINATION    = 43.0001
RA_OF_ASC_NODE = 46.1098
ARG_OF_PERICENTER = 329.5243
MEAN_ANOMALY   = 30.5492

EPHEMERIS_TYPE = 0
CLASSIFICATION_TYPE = U
NORAD_CAT_ID   = 66329
ELEMENT_SET_NO = 999
REV_AT_EPOCH   = 530
BSTAR          = .2540188E-2
MEAN_MOTION_DOT = .149376E-2
MEAN_MOTION_DDOT = 0

CCSDS_OMM_VERS = 2.0
CREATION_DATE  = 
ORIGINATOR     = 

OBJECT_NAME    = STARLINK-35512
OBJECT_ID      = 2025-253M
CENTER_NAME    = EARTH
REF_FRAME      = TEME
TIME_SYSTEM    = UTC
MEAN_ELEMENT_THEORY = SGP/SGP4

EPOCH          = 2025-12-02T06:00:02.999808
MEAN_MOTION    = 15.40646388
ECCENTRICITY   = .00019144
INCLINATION    = 43.0006
RA_OF_ASC_NODE = 46.1715
ARG_OF_PERICENTER = 287.6140
MEAN_ANOMALY   = 64.5870

EPHEMERIS_TYPE = 0
CLASSIFICATION_TYPE = U
NORAD_CAT_ID   = 66330
ELEMENT_SET_NO = 999
REV_AT_EPOCH   = 524
BSTAR          = .17320996E-2
MEAN_MOTION_DOT = .72614E-3
MEAN_MOTION_DDOT = 0

CCSDS_OMM_VERS = 2.0
CREATION_DATE  = 
ORIGINATOR     = 

OBJECT_NAME    = STARLINK-35257
OBJECT_ID      = 2025-253N
CENTER_NAME    = EARTH
REF_FRAME      = TEME
TIME_SYSTEM    = UTC
MEAN_ELEMENT_THEORY = SGP/SGP4

EPOCH          = 2025-12-02T05:45:36.980640
MEAN_MOTION    = 15.50637590
ECCENTRICITY   = .00012288
INCLINATION    = 42.9998
RA_OF_ASC_NODE = 46.0726
ARG_OF_PERICENTER = 269.4284
MEAN_ANOMALY   = 90.6435

EPHEMERIS_TYPE = 0
CLASSIFICATION_TYPE = U
NORAD_CAT_ID   = 66331
ELEMENT_SET_NO = 999
REV_AT_EPOCH   = 530
BSTAR          = .14445212E-2
MEAN_MOTION_DOT = .85511E-3
MEAN_MOTION_DDOT = 0

CCSDS_OMM_VERS = 2.0
CREATION_DATE  = 
ORIGINATOR     = 

OBJECT_NAME    = STARLINK-35322
OBJECT_ID      = 2025-253P
CENTER_NAME    = EARTH
REF_FRAME      = TEME
TIME_SYSTEM    = UTC
MEAN_ELEMENT_THEORY = SGP/SGP4

EPOCH          = 2025-12-02T05:48:04.240800
MEAN_MOTION    = 15.50671276
ECCENTRICITY   = .00009862
INCLINATION    = 43.0002
RA_OF_ASC_NODE = 46.0856
ARG_OF_PERICENTER = 282.8379
MEAN_ANOMALY   = 77.2371

EPHEMERIS_TYPE = 0
CLASSIFICATION_TYPE = U
NORAD_CAT_ID   = 66332
ELEMENT_SET_NO = 999
REV_AT_EPOCH   = 530
BSTAR          = .15229972E-2
MEAN_MOTION_DOT = .90339E-3
MEAN_MOTION_DDOT = 0

CCSDS_OMM_VERS = 2.0
CREATION_DATE  = 
ORIGINATOR     = 

OBJECT_NAME    = STARLINK-35400
OBJECT_ID      = 2025-253Q
CENTER_NAME    = EARTH
REF_FRAME      = TEME
TIME_SYSTEM    = UTC
MEAN_ELEMENT_THEORY = SGP/SGP4

EPOCH          = 2025-12-02T05:46:06.662496
MEAN_MOTION    = 15.50632789
ECCENTRICITY   = .00016061
INCLINATION    = 43.0007
RA_OF_ASC_NODE = 46.0732
ARG_OF_PERICENTER = 261.2181
MEAN_ANOMALY   = 98.8498

EPHEMERIS_TYPE = 0
CLASSIFICATION_TYPE = U
NORAD_CAT_ID   = 66333
ELEMENT_SET_NO = 999
REV_AT_EPOCH   = 530
BSTAR          = .15089073E-2
MEAN_MOTION_DOT = .89367E-3
MEAN_MOTION_DDOT = 0

CCSDS_OMM_VERS = 2.0
CREATION_DATE  = 
ORIGINATOR     = 

OBJECT_NAME    = STARLINK-35407
OBJECT_ID      = 2025-253R
CENTER_NAME    = EARTH
REF_FRAME      = TEME
TIME_SYSTEM    = UTC
MEAN_ELEMENT_THEORY = SGP/SGP4

EPOCH          = 2025-12-02T05:47:54.705696
MEAN_MOTION    = 15.50606846
ECCENTRICITY   = .00018201
INCLINATION    = 43.0002
RA_OF_ASC_NODE = 46.0853
ARG_OF_PERICENTER = 277.7851
MEAN_ANOMALY   = 82.2803

EPHEMERIS_TYPE = 0
CLASSIFICATION_TYPE = U
NORAD_CAT_ID   = 66334
ELEMENT_SET_NO = 999
REV_AT_EPOCH   = 530
BSTAR          = .26112392E-2
MEAN_MOTION_DOT = .156096E-2
MEAN_MOTION_DDOT = 0

CCSDS_OMM_VERS = 2.0
CREATION_DATE  = 
ORIGINATOR     = 

OBJECT_NAME    = STARLINK-35417
OBJECT_ID      = 2025-253S
CENTER_NAME    = EARTH
REF_FRAME      = TEME
TIME_SYSTEM    = UTC
MEAN_ELEMENT_THEORY = SGP/SGP4

EPOCH          = 2025-12-02T06:00:02.999808
MEAN_MOTION    = 15.40649977
ECCENTRICITY   = .00013216
INCLINATION    = 43.0009
RA_OF_ASC_NODE = 46.2588
ARG_OF_PERICENTER = 251.0876
MEAN_ANOMALY   = 63.9197

EPHEMERIS_TYPE = 0
CLASSIFICATION_TYPE = U
NORAD_CAT_ID   = 66335
ELEMENT_SET_NO = 999
REV_AT_EPOCH   = 524
BSTAR          = .11339018E-2
MEAN_MOTION_DOT = .47277E-3
MEAN_MOTION_DDOT = 0

CCSDS_OMM_VERS = 2.0
CREATION_DATE  = 
ORIGINATOR     = 

OBJECT_NAME    = STARLINK-35404
OBJECT_ID      = 2025-253T
CENTER_NAME    = EARTH
REF_FRAME      = TEME
TIME_SYSTEM    = UTC
MEAN_ELEMENT_THEORY = SGP/SGP4

EPOCH          = 2025-12-02T05:45:07.240032
MEAN_MOTION    = 15.50663874
ECCENTRICITY   = .00015748
INCLINATION    = 42.9999
RA_OF_ASC_NODE = 46.0686
ARG_OF_PERICENTER = 253.9948
MEAN_ANOMALY   = 106.0739

EPHEMERIS_TYPE = 0
CLASSIFICATION_TYPE = U
NORAD_CAT_ID   = 66336
ELEMENT_SET_NO = 999
REV_AT_EPOCH   = 530
BSTAR          = .21833927E-2
MEAN_MOTION_DOT = .130295E-2
MEAN_MOTION_DDOT = 0

